CCSDS_OMM_VERS = 2.0
CREATION_DATE  = 
ORIGINATOR     = 

OBJECT_NAME    = SL-3 R/B
OBJECT_ID      = 1988-032B
CENTER_NAME    = EARTH
REF_FRAME      = TEME
TIME_SYSTEM    = UTC
MEAN_ELEMENT_THEORY = SGP/SGP4

EPOCH          = 2026-03-17T05:42:05.628960
MEAN_MOTION    = 15.19997142
ECCENTRICITY   = .0025076
INCLINATION    = 97.5196
RA_OF_ASC_NODE = 59.4621
ARG_OF_PERICENTER = 203.8793
MEAN_ANOMALY   = 156.1281

EPHEMERIS_TYPE = 0
CLASSIFICATION_TYPE = U
NORAD_CAT_ID   = 19046
ELEMENT_SET_NO = 999
REV_AT_EPOCH   = 5325
BSTAR          = .19545255E-3
MEAN_MOTION_DOT = .4172E-4
MEAN_MOTION_DDOT = 0

CCSDS_OMM_VERS = 2.0
CREATION_DATE  = 
ORIGINATOR     = 

OBJECT_NAME    = SL-16 R/B
OBJECT_ID      = 1988-039B
CENTER_NAME    = EARTH
REF_FRAME      = TEME
TIME_SYSTEM    = UTC
MEAN_ELEMENT_THEORY = SGP/SGP4

EPOCH          = 2026-03-17T04:01:11.599968
MEAN_MOTION    = 14.19617444
ECCENTRICITY   = .0023149
INCLINATION    = 71.0146
RA_OF_ASC_NODE = 52.7342
ARG_OF_PERICENTER = 323.5040
MEAN_ANOMALY   = 36.4507

EPHEMERIS_TYPE = 0
CLASSIFICATION_TYPE = U
NORAD_CAT_ID   = 19120
ELEMENT_SET_NO = 999
REV_AT_EPOCH   = 95944
BSTAR          = .6170081E-4
MEAN_MOTION_DOT = .82E-6
MEAN_MOTION_DDOT = 0

CCSDS_OMM_VERS = 2.0
CREATION_DATE  = 
ORIGINATOR     = 

OBJECT_NAME    = COSMOS 1953
OBJECT_ID      = 1988-050A
CENTER_NAME    = EARTH
REF_FRAME      = TEME
TIME_SYSTEM    = UTC
MEAN_ELEMENT_THEORY = SGP/SGP4

EPOCH          = 2026-03-17T05:15:37.577088
MEAN_MOTION    = 15.28653980
ECCENTRICITY   = .00126667
INCLINATION    = 82.5102
RA_OF_ASC_NODE = 150.6748
ARG_OF_PERICENTER = 98.9424
MEAN_ANOMALY   = 261.3250

EPHEMERIS_TYPE = 0
CLASSIFICATION_TYPE = U
NORAD_CAT_ID   = 19210
ELEMENT_SET_NO = 999
REV_AT_EPOCH   = 3893
BSTAR          = .21416114E-3
MEAN_MOTION_DOT = .6013E-4
MEAN_MOTION_DDOT = 0

CCSDS_OMM_VERS = 2.0
CREATION_DATE  = 
ORIGINATOR     = 

OBJECT_NAME    = SL-8 R/B
OBJECT_ID      = 1988-053B
CENTER_NAME    = EARTH
REF_FRAME      = TEME
TIME_SYSTEM    = UTC
MEAN_ELEMENT_THEORY = SGP/SGP4

EPOCH          = 2026-03-17T03:58:10.647264
MEAN_MOTION    = 14.38920585
ECCENTRICITY   = .00215342
INCLINATION    = 74.0451
RA_OF_ASC_NODE = 98.6853
ARG_OF_PERICENTER = 276.9982
MEAN_ANOMALY   = 145.3337

EPHEMERIS_TYPE = 0
CLASSIFICATION_TYPE = U
NORAD_CAT_ID   = 19257
ELEMENT_SET_NO = 999
REV_AT_EPOCH   = 97767
BSTAR          = .95375802E-4
MEAN_MOTION_DOT = .268E-5
MEAN_MOTION_DDOT = 0

CCSDS_OMM_VERS = 2.0
CREATION_DATE  = 
ORIGINATOR     = 

OBJECT_NAME    = COSMOS 1975
OBJECT_ID      = 1988-093A
CENTER_NAME    = EARTH
REF_FRAME      = TEME
TIME_SYSTEM    = UTC
MEAN_ELEMENT_THEORY = SGP/SGP4

EPOCH          = 2026-03-17T02:58:55.759008
MEAN_MOTION    = 15.28173282
ECCENTRICITY   = .001279
INCLINATION    = 82.5171
RA_OF_ASC_NODE = 110.2205
ARG_OF_PERICENTER = 138.7497
MEAN_ANOMALY   = 221.4711

EPHEMERIS_TYPE = 0
CLASSIFICATION_TYPE = U
NORAD_CAT_ID   = 19573
ELEMENT_SET_NO = 999
REV_AT_EPOCH   = 2054
BSTAR          = .1669456E-3
MEAN_MOTION_DOT = .4627E-4
MEAN_MOTION_DDOT = 0

CCSDS_OMM_VERS = 2.0
CREATION_DATE  = 
ORIGINATOR     = 

OBJECT_NAME    = SL-14 R/B
OBJECT_ID      = 1988-093B
CENTER_NAME    = EARTH
REF_FRAME      = TEME
TIME_SYSTEM    = UTC
MEAN_ELEMENT_THEORY = SGP/SGP4

EPOCH          = 2026-03-17T03:05:36.161664
MEAN_MOTION    = 14.85665856
ECCENTRICITY   = .0021178
INCLINATION    = 82.5320
RA_OF_ASC_NODE = 35.0604
ARG_OF_PERICENTER = 17.8827
MEAN_ANOMALY   = 352.9720

EPHEMERIS_TYPE = 0
CLASSIFICATION_TYPE = U
NORAD_CAT_ID   = 19574
ELEMENT_SET_NO = 999
REV_AT_EPOCH   = 212
BSTAR          = .57694654E-4
MEAN_MOTION_DOT = .526E-5
MEAN_MOTION_DDOT = 0

CCSDS_OMM_VERS = 2.0
CREATION_DATE  = 
ORIGINATOR     = 

OBJECT_NAME    = SL-16 R/B
OBJECT_ID      = 1988-102B
CENTER_NAME    = EARTH
REF_FRAME      = TEME
TIME_SYSTEM    = UTC
MEAN_ELEMENT_THEORY = SGP/SGP4

EPOCH          = 2026-03-17T04:19:39.057024
MEAN_MOTION    = 14.16155890
ECCENTRICITY   = .00144816
INCLINATION    = 70.9991
RA_OF_ASC_NODE = 135.7369
ARG_OF_PERICENTER = 349.8844
MEAN_ANOMALY   = 10.1986

EPHEMERIS_TYPE = 0
CLASSIFICATION_TYPE = U
NORAD_CAT_ID   = 19650
ELEMENT_SET_NO = 999
REV_AT_EPOCH   = 92795
BSTAR          = .45291931E-4
MEAN_MOTION_DOT = .42E-6
MEAN_MOTION_DDOT = 0

CCSDS_OMM_VERS = 2.0
CREATION_DATE  = 
ORIGINATOR     = 

OBJECT_NAME    = INTERCOSMOS 24
OBJECT_ID      = 1989-080A
CENTER_NAME    = EARTH
REF_FRAME      = TEME
TIME_SYSTEM    = UTC
MEAN_ELEMENT_THEORY = SGP/SGP4

EPOCH          = 2026-03-17T02:38:33.975744
MEAN_MOTION    = 12.59568937
ECCENTRICITY   = .11866681
INCLINATION    = 82.6018
RA_OF_ASC_NODE = 99.5709
ARG_OF_PERICENTER = 275.5791
MEAN_ANOMALY   = 71.1422

EPHEMERIS_TYPE = 0
CLASSIFICATION_TYPE = U
NORAD_CAT_ID   = 20261
ELEMENT_SET_NO = 999
REV_AT_EPOCH   = 66773
BSTAR          = .1743202E-3
MEAN_MOTION_DOT = .586E-5
MEAN_MOTION_DDOT = 0

CCSDS_OMM_VERS = 2.0
CREATION_DATE  = 
ORIGINATOR     = 

OBJECT_NAME    = SL-14 R/B
OBJECT_ID      = 1989-080C
CENTER_NAME    = EARTH
REF_FRAME      = TEME
TIME_SYSTEM    = UTC
MEAN_ELEMENT_THEORY = SGP/SGP4

EPOCH          = 2026-03-16T23:56:37.732416
MEAN_MOTION    = 12.50502046
ECCENTRICITY   = .12307467
INCLINATION    = 82.5969
RA_OF_ASC_NODE = 168.4966
ARG_OF_PERICENTER = 168.0517
MEAN_ANOMALY   = 195.2866

EPHEMERIS_TYPE = 0
CLASSIFICATION_TYPE = U
NORAD_CAT_ID   = 20262
ELEMENT_SET_NO = 999
REV_AT_EPOCH   = 66106
BSTAR          = .13784424E-3
MEAN_MOTION_DOT = .479E-5
MEAN_MOTION_DDOT = 0

CCSDS_OMM_VERS = 2.0
CREATION_DATE  = 
ORIGINATOR     = 

OBJECT_NAME    = DELTA 1 R/B
OBJECT_ID      = 1989-089B
CENTER_NAME    = EARTH
REF_FRAME      = TEME
TIME_SYSTEM    = UTC
MEAN_ELEMENT_THEORY = SGP/SGP4

EPOCH          = 2026-03-17T06:39:05.571648
MEAN_MOTION    = 14.50669601
ECCENTRICITY   = .00707148
INCLINATION    = 97.0700
RA_OF_ASC_NODE = 282.5088
ARG_OF_PERICENTER = 98.4504
MEAN_ANOMALY   = 262.4718

EPHEMERIS_TYPE = 0
CLASSIFICATION_TYPE = U
NORAD_CAT_ID   = 20323
ELEMENT_SET_NO = 999
REV_AT_EPOCH   = 89683
BSTAR          = .94845323E-4
MEAN_MOTION_DOT = .35E-5
MEAN_MOTION_DDOT = 0

CCSDS_OMM_VERS = 2.0
CREATION_DATE  = 
ORIGINATOR     = 

OBJECT_NAME    = ARIANE 40 R/B
OBJECT_ID      = 1990-005H
CENTER_NAME    = EARTH
REF_FRAME      = TEME
TIME_SYSTEM    = UTC
MEAN_ELEMENT_THEORY = SGP/SGP4

EPOCH          = 2026-03-17T04:18:35.326656
MEAN_MOTION    = 14.39875475
ECCENTRICITY   = .00103138
INCLINATION    = 98.3066
RA_OF_ASC_NODE = 136.6173
ARG_OF_PERICENTER = 175.6987
MEAN_ANOMALY   = 184.4292

EPHEMERIS_TYPE = 0
CLASSIFICATION_TYPE = U
NORAD_CAT_ID   = 20443
ELEMENT_SET_NO = 999
REV_AT_EPOCH   = 89388
BSTAR          = .90909412E-4
MEAN_MOTION_DOT = .243E-5
MEAN_MOTION_DDOT = 0

CCSDS_OMM_VERS = 2.0
CREATION_DATE  = 
ORIGINATOR     = 

OBJECT_NAME    = DELTA 2 R/B(1)
OBJECT_ID      = 1990-008B
CENTER_NAME    = EARTH
REF_FRAME      = TEME
TIME_SYSTEM    = UTC
MEAN_ELEMENT_THEORY = SGP/SGP4

EPOCH          = 2026-03-16T11:52:07.080960
MEAN_MOTION    = 15.56890569
ECCENTRICITY   = .00829492
INCLINATION    = 35.6034
RA_OF_ASC_NODE = 130.1631
ARG_OF_PERICENTER = 321.5693
MEAN_ANOMALY   = 37.9155

EPHEMERIS_TYPE = 0
CLASSIFICATION_TYPE = U
NORAD_CAT_ID   = 20453
ELEMENT_SET_NO = 999
REV_AT_EPOCH   = 92719
BSTAR          = .63370257E-3
MEAN_MOTION_DOT = .55596E-3
MEAN_MOTION_DDOT = 0

